[{"OBJECT_NAME":"HODOYOSHI-3","OBJECT_ID":"2014-033F","EPOCH":"2026-03-09T21:11:10.652352","MEAN_MOTION":14.85138877,"ECCENTRICITY":0.00320899,"INCLINATION":97.6303,"RA_OF_ASC_NODE":235.9902,"ARG_OF_PERICENTER":323.6224,"MEAN_ANOMALY":36.2811,"EPHEMERIS_TYPE":0,"CLASSIFICATION_TYPE":"U","NORAD_CAT_ID":40015,"ELEMENT_SET_NO":999,"REV_AT_EPOCH":63288,"BSTAR":0.00019822754,"MEAN_MOTION_DOT":1.659e-5,"MEAN_MOTION_DDOT":0},{"OBJECT_NAME":"SCOUT X-4 R\/B","OBJECT_ID":"1963-053B","EPOCH":"2026-03-09T20:20:06.922176","MEAN_MOTION":12.55061251,"ECCENTRICITY":0.10877404,"INCLINATION":78.6021,"RA_OF_ASC_NODE":208.8541,"ARG_OF_PERICENTER":246.1328,"MEAN_ANOMALY":102.2165,"EPHEMERIS_TYPE":0,"CLASSIFICATION_TYPE":"U","NORAD_CAT_ID":721,"ELEMENT_SET_NO":999,"REV_AT_EPOCH":83759,"BSTAR":0.00029662772,"MEAN_MOTION_DOT":4.99e-6,"MEAN_MOTION_DDOT":0}]
